H1 CPF  1  DLR 2022 02 11 10  5422 technosat            
H2  1704205 6203    42829 2022 02 11 00 00 00 2022 02 18 00 00 00    60 1 1  0 0 0
H9
10 0 59624      0.000000  0      -2072700.877       4485338.275       4897908.976
10 0 59624     60.000000  0      -1842550.170       4232748.964       5204096.804
10 0 59624    120.000000  0      -1606901.268       3960211.392       5488104.756
10 0 59624    180.000000  0      -1366921.890       3668838.257       5748725.920
10 0 59624    240.000000  0      -1123787.729       3359832.107       5984853.805
10 0 59624    300.000000  0       -878676.617       3034480.106       6195486.959
10 0 59624    360.000000  0       -632762.790       2694148.393       6379733.026
10 0 59624    420.000000  0       -387211.261       2340276.205       6536812.359
10 0 59624    480.000000  0       -143172.267       1974369.648       6666061.247
10 0 59624    540.000000  0         98224.171       1597995.063       6766934.624
10 0 59624    600.000000  0        335873.521       1212772.138       6839008.159
10 0 59624    660.000000  0        568701.806        820366.855       6881979.873
10 0 59624    720.000000  0        795670.457        422484.234       6895671.294
10 0 59624    780.000000  0       1015780.961         20860.877       6880028.159
10 0 59624    840.000000  0       1228079.258       -382742.696       6835120.628
10 0 59624    900.000000  0       1431659.906       -786549.878       6761142.937
10 0 59624    960.000000  0       1625669.973      -1188775.846       6658412.480
10 0 59624   1020.000000  0       1809312.614      -1587635.455       6527368.516
10 0 59624   1080.000000  0       1981850.389      -1981351.278       6368570.373
10 0 59624   1140.000000  0       2142608.260      -2368161.633       6182695.096
10 0 59624   1200.000000  0       2290976.267      -2746328.547       5970534.635
10 0 59624   1260.000000  0       2426411.887      -3114145.712       5732992.532
10 0 59624   1320.000000  0       2548441.997      -3469946.294       5471080.091
10 0 59624   1380.000000  0       2656664.495      -3812110.587       5185912.148
10 0 59624   1440.000000  0       2750749.592      -4139073.535       4878702.433
10 0 59624   1500.000000  0       2830440.761      -4449332.101       4550758.467
10 0 59624   1560.000000  0       2895555.321      -4741452.376       4203475.947
10 0 59624   1620.000000  0       2945984.602      -5014076.337       3838332.759
10 0 59624   1680.000000  0       2981693.745      -5265928.337       3456882.695
10 0 59624   1740.000000  0       3002721.158      -5495821.297       3060748.773
10 0 59624   1800.000000  0       3009177.569      -5702662.460       2651616.169
10 0 59624   1860.000000  0       3001244.683      -5885458.684       2231224.893
10 0 59624   1920.000000  0       2979173.476      -6043321.280       1801362.209
10 0 59624   1980.000000  0       2943282.170      -6175470.324       1363854.907
10 0 59624   2040.000000  0       2893953.946      -6281238.570        920561.387
10 0 59624   2100.000000  0       2831634.285      -6360074.782        473363.567
10 0 59624   2160.000000  0       2756828.004      -6411546.609         24158.693
10 0 59624   2220.000000  0       2670095.962      -6435342.829       -425149.029
10 0 59624   2280.000000  0       2572051.515      -6431274.906       -872656.784
10 0 59624   2340.000000  0       2463356.708      -6399277.945      -1316471.381
10 0 59624   2400.000000  0       2344718.238      -6339411.123      -1754717.360
10 0 59624   2460.000000  0       2216883.288      -6251857.568      -2185544.998
10 0 59624   2520.000000  0       2080635.219      -6136923.712      -2607138.312
10 0 59624   2580.000000  0       1936788.872      -5995037.840      -3017722.864
10 0 59624   2640.000000  0       1786185.920      -5826748.039      -3415573.055
10 0 59624   2700.000000  0       1629690.252      -5632719.775      -3799019.264
10 0 59624   2760.000000  0       1468183.263      -5413732.898      -4166454.733
10 0 59624   2820.000000  0       1302559.097      -5170678.140      -4516342.081
10 0 59624   2880.000000  0       1133719.904      -4904553.173      -4847219.466
10 0 59624   2940.000000  0        962571.131      -4616458.237      -5157706.397
10 0 59624   3000.000000  0        790016.865      -4307591.334      -5446509.183
10 0 59624   3060.000000  0        616955.239      -3979243.005      -5712425.980
10 0 59624   3120.000000  0        444273.950      -3632790.757      -5954351.407
10 0 59624   3180.000000  0        272845.895      -3269693.163      -6171280.742
10 0 59624   3240.000000  0        103524.946      -2891483.660      -6362313.720
10 0 59624   3300.000000  0        -62858.122      -2499764.073      -6526657.894
10 0 59624   3360.000000  0       -225499.532      -2096197.873      -6663631.587
10 0 59624   3420.000000  0       -383626.223      -1682503.240      -6772666.398
10 0 59624   3480.000000  0       -536499.342      -1260445.919      -6853309.343
10 0 59624   3540.000000  0       -683417.552       -831831.841      -6905224.551
10 0 59624   3600.000000  0       -823720.113       -398499.615      -6928194.499
10 0 59624   3660.000000  0       -956789.763         37687.103      -6922120.790
10 0 59624   3720.000000  0      -1082055.354        474847.277      -6887024.544
10 0 59624   3780.000000  0      -1198994.241        911090.320      -6823046.454
10 0 59624   3840.000000  0      -1307134.418       1344524.051      -6730446.312
10 0 59624   3900.000000  0      -1406056.380       1773262.590      -6609602.085
10 0 59624   3960.000000  0      -1495394.730       2195434.269      -6461008.698
10 0 59624   4020.000000  0      -1574839.547       2609189.649      -6285276.407
10 0 59624   4080.000000  0      -1644137.497       3012709.553      -6083128.639
10 0 59624   4140.000000  0      -1703092.627       3404212.967      -5855399.341
10 0 59624   4200.000000  0      -1751566.861       3781964.834      -5603029.990
10 0 59624   4260.000000  0      -1789480.257       4144283.818      -5327066.172
10 0 59624   4320.000000  0      -1816810.973       4489549.930      -5028653.665
10 0 59624   4380.000000  0      -1833594.937       4816211.965      -4709034.070
10 0 59624   4440.000000  0      -1839925.219       5122794.698      -4369539.983
10 0 59624   4500.000000  0      -1835951.090       5407905.808      -4011589.763
10 0 59624   4560.000000  0      -1821876.802       5670242.495      -3636681.900
10 0 59624   4620.000000  0      -1797960.043       5908597.761      -3246389.011
10 0 59624   4680.000000  0      -1764510.147       6121866.350      -2842351.483
10 0 59624   4740.000000  0      -1721886.042       6309050.320      -2426270.739
10 0 59624   4800.000000  0      -1670493.913       6469264.173      -1999902.101
10 0 59624   4860.000000  0      -1610784.586       6601739.414      -1565047.346
10 0 59624   4920.000000  0      -1543250.675       6705828.557      -1123547.093
10 0 59624   4980.000000  0      -1468423.536       6781008.723       -677272.965
10 0 59624   5040.000000  0      -1386869.970       6826884.637       -228119.461
10 0 59624   5100.000000  0      -1299188.706       6843191.042        222004.302
10 0 59624   5160.000000  0      -1206006.735       6829794.479        671183.088
10 0 59624   5220.000000  0      -1107975.509       6786694.298       1117504.101
10 0 59624   5280.000000  0      -1005766.988       6714022.955       1559065.509
10 0 59624   5340.000000  0       -900069.571       6612045.646       1993984.870
10 0 59624   5400.000000  0       -791583.958       6481159.310       2420407.415
10 0 59624   5460.000000  0       -681018.987       6321891.055       2836514.219
10 0 59624   5520.000000  0       -569087.438       6134895.924       3240530.248
10 0 59624   5580.000000  0       -456501.827       5920953.988       3630732.122
10 0 59624   5640.000000  0       -343970.308       5680967.047       4005455.629
10 0 59624   5700.000000  0       -232192.585       5415954.658       4363103.272
10 0 59624   5760.000000  0       -121855.826       5127049.258       4702151.360
10 0 59624   5820.000000  0        -13630.674       4815490.761       5021156.410
10 0 59624   5880.000000  0         91832.554       4482620.996       5318761.066
10 0 59624   5940.000000  0        193907.499       4129877.813       5593699.903
10 0 59624   6000.000000  0        291995.247       3758788.573       5844804.932
10 0 59624   6060.000000  0        385527.638       3370963.110       6071010.504
10 0 59624   6120.000000  0        473970.337       2968086.443       6271357.644
10 0 59624   6180.000000  0        556825.717       2551911.242       6444997.977
10 0 59624   6240.000000  0        633635.503       2124249.993       6591197.211
10 0 59624   6300.000000  0        703983.189       1686966.863       6709338.122
10 0 59624   6360.000000  0        767496.180       1241969.375       6798922.972
10 0 59624   6420.000000  0        823847.680        791199.968       6859575.422
10 0 59624   6480.000000  0        872758.318        336627.478       6891041.979
10 0 59624   6540.000000  0        913997.501       -119761.495       6893193.027
10 0 59624   6600.000000  0        947384.465       -575971.399       6866023.370
10 0 59624   6660.000000  0        972789.060      -1030006.583       6809652.148
10 0 59624   6720.000000  0        990132.259      -1479880.057       6724322.281
10 0 59624   6780.000000  0        999386.329      -1923622.275       6610399.454
10 0 59624   6840.000000  0       1000574.774      -2359289.842       6468370.586
10 0 59624   6900.000000  0        993771.975      -2784974.186       6298841.806
10 0 59624   6960.000000  0        979102.462      -3198810.076       6102535.816
10 0 59624   7020.000000  0        956739.952      -3598983.811       5880288.790
10 0 59624   7080.000000  0        926906.184      -3983741.253       5633046.911
10 0 59624   7140.000000  0        889869.448      -4351395.635       5361862.415
99
